STARLINK-1746
1 46588U 20070BJ  26090.83335647  .00235936  00000+0  12227-2 0  9999
2 46588  53.0401   4.5472 0003902 190.0388 247.7858 15.79837017  6017
